[{"OBJECT_NAME":"STARLINK-33588","OBJECT_ID":"2025-015Z","EPOCH":"2026-03-09T23:13:57.069696","MEAN_MOTION":15.30204109,"ECCENTRICITY":7.75e-5,"INCLINATION":53.1594,"RA_OF_ASC_NODE":318.9776,"ARG_OF_PERICENTER":95.2611,"MEAN_ANOMALY":264.8478,"EPHEMERIS_TYPE":0,"CLASSIFICATION_TYPE":"U","NORAD_CAT_ID":62781,"ELEMENT_SET_NO":999,"REV_AT_EPOCH":6455,"BSTAR":0.00065992311,"MEAN_MOTION_DOT":0.00019239,"MEAN_MOTION_DDOT":0},{"OBJECT_NAME":"TRANSPORTER-1 OBJECT L","OBJECT_ID":"2021-006L","EPOCH":"2026-03-09T22:38:42.795168","MEAN_MOTION":15.33192932,"ECCENTRICITY":0.00114726,"INCLINATION":97.2368,"RA_OF_ASC_NODE":117.6447,"ARG_OF_PERICENTER":180.5165,"MEAN_ANOMALY":179.6068,"EPHEMERIS_TYPE":0,"CLASSIFICATION_TYPE":"U","NORAD_CAT_ID":47423,"ELEMENT_SET_NO":999,"REV_AT_EPOCH":28445,"BSTAR":0.00025636794,"MEAN_MOTION_DOT":8.162e-5,"MEAN_MOTION_DDOT":0}]
